TDRS 3                  
1 19548U 88091B   25014.31198765 -.00000300  00000+0  00000+0 0  9997
2 19548  12.9986 344.4680 0041786 339.3039 213.5629  1.00278772120183
HST                     
1 20580U 90037B   25015.20656603  .00008567  00000+0  35150-3 0  9997
2 20580  28.4699 359.8388 0002600 197.4507 162.5998 15.22417220709327
TDRS 5                  
1 21639U 91054B   25015.01290590 -.00000304  00000+0  00000+0 0  9995
2 21639  14.1339 357.5664 0005624 285.0108 134.3952  1.00278748122527
TDRS 6                  
1 22314U 93003B   25015.37815943 -.00000298  00000+0  00000+0 0  9998
2 22314  14.1689   0.8631 0007761 191.2460  13.0715  1.00278165117214
TDRS 7                  
1 23613U 95035B   25014.61852398 -.00000204  00000+0  00000+0 0  9996
2 23613  13.5925 351.7572 0022192  67.9111   2.2212  1.00270772108052
ISS (ZARYA)             
1 25544U 98067A   25015.71081605 -.00019999  00000+0 -34300-3 0  9992
2 25544  51.6408 342.3236 0001968  98.6252 317.1620 15.50030601491516
TERRA                   
1 25994U 99068A   25015.54456779  .00000779  00000+0  17011-3 0  9996
2 25994  98.0215  78.5577 0003434  71.4488  58.5345 14.60395912334034
TDRS 8                  
1 26388U 00034A   25015.43147755  .00000090  00000+0  00000+0 0  9990
2 26388  11.8684  35.5376 0006976 240.1669 187.2688  1.00278536 89999
TIMED                   
1 26998U 01055B   25015.57178417  .00002255  00000+0  22006-3 0  9994
2 26998  74.0683 195.6627 0001557 212.7107 147.3980 14.93094127253505
AQUA                    
1 27424U 02022A   25015.55367310  .00001681  00000+0  35507-3 0  9996
2 27424  98.3589 332.2226 0001741 110.9075 308.3746 14.60684167207664
TDRS 10                 
1 27566U 02055A   25015.60878573  .00000082  00000+0  00000+0 0  9993
2 27566  10.0025  43.6913 0006449 284.4955 195.2738  1.00265996 81048
SORCE                   
1 27651U 03004A   25015.27268694  .00005491  00000+0  45982-3 0  9994
2 27651  39.9933 326.3635 0021535 293.2107  66.6418 14.98586163194036
AURA                    
1 28376U 04026A   25015.59573386  .00001659  00000+0  35716-3 0  9992
2 28376  98.2775 325.4115 0001499  89.7857 270.3514 14.59793589 90656
SWIFT                   
1 28485U 04047A   25015.47679664  .00022045  00000+0  71916-3 0  9993
2 28485  20.5558  90.0975 0007483 157.9952 202.0808 15.29722069106600
THEMIS A                
1 30580U 07004A   25015.22833767 -.00000146  00000+0  00000+0 0  9998
2 30580   6.9093 245.5740 8424662   3.1981   0.3517  0.87838618 36729
THEMIS D                
1 30797U 07004D   25015.39331778 -.00000177  00000+0  00000+0 0  9995
2 30797   2.2928 244.8790 8407024   8.2014  41.6175  0.87839170 36528
THEMIS E                
1 30798U 07004E   25015.41567623 -.00000197  00000+0  00000+0 0  9991
2 30798   4.6262 273.3374 8396013 340.6137  61.6576  0.87836617 61365
FGRST (GLAST)           
1 33053U 08029A   25015.60382701  .00003702  00000+0  15389-3 0  9993
2 33053  25.5797 187.4295 0009701   0.9487 359.1067 15.19670387916893
TDRS 11                 
1 39070U 13004A   25015.61703624  .00000079  00000+0  00000+0 0  9993
2 39070   2.8869  18.8601 0002761  11.9461 132.2258  1.00274977 41506
TDRS 12                 
1 39504U 14004A   25015.42674674 -.00000270  00000+0  00000+0 0  9991
2 39504   3.6020   8.5217 0004478 252.4826 326.6854  1.00278093 39083
GPM-CORE                
1 39574U 14009C   25015.61229780  .00010936  00000+0  23981-3 0  9994
2 39574  64.9784 241.7724 0010605 259.9364 100.0580 15.44430021617861
MMS 1                   
1 40482U 15011A   25015.58334491 -.00001858  00000+0  00000+0 0  9997
2 40482  59.3269 359.7938 8889052 155.6838 286.4669  0.28400024  1343
MMS 2                   
1 40483U 15011B   25015.58334491 -.00001860  00000+0  00000+0 0  9991
2 40483  59.3236 359.7947 8894166 155.6814 284.8599  0.28418929  1341
MMS 3                   
1 40484U 15011C   25015.58334491 -.00001861  00000+0  00000+0 0  9993
2 40484  59.3288 359.7932 8893416 155.6706 285.2124  0.28394611  1340
MMS 4                   
1 40485U 15011D   25015.58334491 -.00001857  00000+0  00000+0 0  9999
2 40485  59.3093 359.8015 8892537 155.6863 275.2206  0.28438197  1387
TDRS 13                 
1 42915U 17047A   25014.31954626 -.00000096  00000+0  00000+0 0  9992
2 42915   3.5044 349.5088 0009972 115.0351 113.1050  1.00271310 27149
NOAA 20 (JPSS-1)        
1 43013U 17073A   25015.57024690  .00000156  00000+0  94769-4 0  9995
2 43013  98.7288 316.1204 0001222  26.8506 333.2733 14.19538431371033
